GORIZONT 1              
1 11158U 78118A   25067.79684579 -.00000116  00000+0  00000+0 0  9993
2 11158  11.7724 168.5890 3164915 335.3304  12.2961  1.00304426118277
GORIZONT 2              
1 11440U 79062A   25068.70011253 -.00000114  00000+0  00000+0 0  9999
2 11440   6.8839 290.6574 0005115 350.1859 213.5588  1.00307209133362
GORIZONT 3              
1 11648U 79105A   25068.70124198 -.00000178  00000+0  00000+0 0  9990
2 11648   7.0652 292.3712 0011280 252.5370 315.5744  1.00347180117826
GORIZONT 4              
1 11841U 80049A   25068.36756890 -.00000111  00000+0  00000+0 0  9993
2 11841   8.2842 299.2299 0003202   0.3417 198.8791  0.98630665228935
GORIZONT 5              
1 13092U 82020A   25068.24906103 -.00000096  00000+0  00000+0 0  9997
2 13092   9.3878 304.8998 0032668 243.9652 356.9768  0.98531527117013
GORIZONT 6              
1 13624U 82103A   25068.59735834 -.00000276  00000+0  00000+0 0  9999
2 13624   8.3525 305.2961 0001873 339.3416  26.9238  1.00182287116293
GORIZONT 7              
1 14160U 83066A   25068.89697654 -.00000215  00000+0  00000+0 0  9997
2 14160  10.2288 315.5690 0012195 336.5205 185.2311  0.98349793150184
GORIZONT 8              
1 14532U 83118A   25068.03766172 -.00000205  00000+0  00000+0 0  9995
2 14532  10.4606 317.5931 0027222 173.4270  25.6859  0.98271512115931
GORIZONT 9              
1 14940U 84041A   25068.76883490  .00000020  00000+0  00000+0 0  9991
2 14940   9.6282 315.3867 0004916 270.2574 280.1001  1.00233158117281
GORIZONT 10             
1 15144U 84078A   25068.03479468 -.00000277  00000+0  00000+0 0  9999
2 15144   9.7552 316.4176 0001647 339.8627 204.4769  1.00239451149910
GORIZONT 11             
1 15484U 85007A   25068.39919336 -.00000048  00000+0  00000+0 0  9997
2 15484   9.9932 318.5560 0002160 252.7775  97.5035  1.00250164147963
GORIZONT 12             
1 16769U 86044A   25068.83778944  .00000097  00000+0  00000+0 0  9996
2 16769  10.7903 324.1279 0003618 305.3422 248.7577  1.00223290142608
GORIZONT 13             
1 17083U 86090A   25067.93441060 -.00000115  00000+0  00000+0 0  9995
2 17083  12.8814 331.7245 0015413 352.5353 208.3441  0.96726552114145
GORIZONT 14             
1 17969U 87040A   25068.02961590 -.00000176  00000+0  00000+0 0  9997
2 17969  11.5194 322.7204 0028743 201.7655 354.5827  0.97660258115313
GORIZONT 15             
1 19017U 88028A   25068.10527723 -.00000156  00000+0  00000+0 0  9993
2 19017  13.2877 334.2129 0034292 184.3259   3.2032  0.97828764114955
GORIZONT 16             
1 19397U 88071A   25067.92384163  .00000033  00000+0  00000+0 0  9993
2 19397  12.1180 332.9078 0012162  75.8202 107.3429  0.99982352133585
GORIZONT 17             
1 19765U 89004A   25068.71919708 -.00000057  00000+0  00000+0 0  9993
2 19765  12.7867 336.3894 0020102 159.3010  22.5426  0.99063898130974
GORIZONT 18             
1 20107U 89052A   25067.59006725 -.00000302  00000+0  00000+0 0  9992
2 20107  12.8850 337.5919 0035695 336.9805 219.1594  0.99405769129782
GORIZONT 19             
1 20263U 89081A   25068.76996434 -.00000053  00000+0  00000+0 0  9995
2 20263  12.5881 336.6578 0005258 260.4743 274.0888  1.00353577 42682
GORIZONT 20             
1 20659U 90054A   25068.70211079 -.00000197  00000+0  00000+0 0  9994
2 20659  13.1349 339.3470 0006362 218.7905 306.7653  1.00227539127035
GORIZONT 21             
1 20923U 90094A   25068.70253212 -.00000385  00000+0  00000+0 0  9996
2 20923  13.1802 340.0820 0006530 249.2987 309.4126  1.00355679125790
GORIZONT 22             
1 20953U 90102A   25068.04697730  .00000107  00000+0  00000+0 0  9994
2 20953  13.1578 340.5306 0003183 339.5857 247.5549  1.00337897125701
GORIZONT 23             
1 21533U 91046A   25066.70862265 -.00000203  00000+0  00000+0 0  9993
2 21533  14.0855 344.7861 0006828 317.2799 236.3264  0.98908893 42077
GORIZONT 24             
1 21759U 91074A   25067.79141841 -.00000023  00000+0  00000+0 0  9994
2 21759  14.3225 346.7906 0020864 253.6996 295.1674  0.98441877120373
GORIZONT 25             
1 21922U 92017A   25068.83822384  .00000098  00000+0  00000+0 0  9999
2 21922  13.8402 345.9348 0025673 105.0427  68.9153  0.99845165120309
GORIZONT 26             
1 22041U 92043A   25066.89419565  .00000061  00000+0  00000+0 0  9998
2 22041  14.0995 348.0905 0034140 261.1940 289.4343  0.99241268118849
GORIZONT 27             
1 22245U 92082A   25068.55461556 -.00000210  00000+0  00000+0 0  9996
2 22245  13.9988 347.3977 0011469  18.1346 155.0725  1.00225155122460
GORIZONT 28             
1 22880U 93069A   25066.15044632 -.00000293  00000+0  00000+0 0  9994
2 22880  14.3112 351.4403 0031775 160.8669  33.0602  0.99657056114471
GORIZONT 29             
1 22907U 93072A   25068.17121939 -.00000279  00000+0  00000+0 0  9992
2 22907  14.1965 350.7727 0010523 352.0356 174.4845  1.00126712114519
GORIZONT 30             
1 23108U 94030A   25068.07475091 -.00000135  00000+0  00000+0 0  9992
2 23108  14.2493 351.6519 0003851 265.3954 284.3826  1.00264394112792
GORIZONT 31             
1 23775U 96005A   25067.89003374  .00000074  00000+0  00000+0 0  9997
2 23775  14.4451 358.0400 0021230 231.9229 314.2446  0.99883284106407
GORIZONT 32             
1 23880U 96034A   25068.38786624 -.00000301  00000+0  00000+0 0  9991
2 23880  14.4155 358.4715 0007656 353.6760 249.8553  1.00163092105374
GORIZONT 33             
1 26372U 00029A   25068.14350494 -.00000282  00000+0  00000+0 0  9993
2 26372  13.6414  10.1599 0002327 232.4149 119.2400  1.00294404 90768
